     2.100          NAVIGATION                              RINEX VERSION / TYPE
fic2rin                                 02/18/2014 00:15:35 PGM / RUN BY / DATE
                                                            END OF HEADER
27 14  2 17 10  0  0.0 -.188788399100D-04 -.102318153949D-11  .000000000000D+00
     .330000000000D+02 -.375625000000D+02  .496984987134D-08 -.124021414237D+01
    -.202283263206D-05  .795558444224D-03  .323355197906D-05  .515366703033D+04
     .122400000000D+06  .335276126862D-07 -.994473852445D+00  .931322574615D-08
     .962293774278D+00  .318000000000D+03  .624292332053D-01 -.847463871700D-08
    -.903609067516D-10  .100000000000D+01  .178000000000D+04  .000000000000D+00
     .240000000000D+01  .000000000000D+00  .186264514923D-08  .330000000000D+02
     .115206000000D+06  .400000000000D+01
28 14  2 17 10  0  0.0  .333196483552D-03  .295585778076D-11  .000000000000D+00
     .116000000000D+03  .804375000000D+02  .417088801994D-08 -.529392907934D+00
     .431016087532D-05  .192653179402D-01  .783801078796D-05  .515366225433D+04
     .122400000000D+06 -.188127160072D-06 -.197747432074D+01  .230967998505D-06
     .985641390914D+00  .249875000000D+03 -.172430484127D+01 -.826820154664D-08
     .618240037893D-09  .100000000000D+01  .178000000000D+04  .000000000000D+00
     .240000000000D+01  .000000000000D+00 -.107102096081D-07  .116000000000D+03
     .115206000000D+06  .400000000000D+01
29 14  2 17 10  0  0.0  .511663965881D-03  .295585778076D-11  .000000000000D+00
     .870000000000D+02 -.446875000000D+02  .488770359247D-08  .153126902199D+01
    -.233203172684D-05  .164556305390D-02  .357069075108D-05  .515374803734D+04
     .122400000000D+06  .298023223877D-07 -.940561921402D+00 -.186264514923D-08
     .968345525512D+00  .318125000000D+03 -.992273129187D+00 -.838820654533D-08
    -.164649715464D-09  .100000000000D+01  .178000000000D+04  .000000000000D+00
     .340000000000D+01  .000000000000D+00 -.931322574615D-08  .870000000000D+02
     .115206000000D+06  .400000000000D+01
31 14  2 17 10  0  0.0  .333300791681D-03  .341060513165D-12  .000000000000D+00
     .420000000000D+02 -.274062500000D+02  .374658463172D-08  .206709804387D+01
    -.123493373394D-05  .820690323599D-02  .112168490887D-04  .515377882385D+04
     .122400000000D+06 -.931322574615D-08 -.305751431601D+01  .726431608200D-07
     .979420558535D+00  .172062500000D+03 -.656332550862D+00 -.752138472444D-08
    -.299298181256D-09  .100000000000D+01  .178000000000D+04  .000000000000D+00
     .240000000000D+01  .000000000000D+00 -.130385160446D-07  .420000000000D+02
     .115206000000D+06  .400000000000D+01
32 14  2 17 10  0  0.0 -.484185293317D-03  .648014975013D-11  .000000000000D+00
     .670000000000D+02  .708125000000D+02  .479019953104D-08  .270750908235D+01
     .358559191227D-05  .114954279270D-01  .779144465923D-05  .515350636673D+04
     .122400000000D+06 -.210478901863D-06  .118771490450D+01  .122934579849D-06
     .947869069934D+00  .222437500000D+03 -.182889206732D+00 -.811926677148D-08
     .310727228751D-09  .100000000000D+01  .178000000000D+04  .000000000000D+00
     .240000000000D+01  .000000000000D+00 -.325962901115D-08  .670000000000D+02
     .115206000000D+06  .400000000000D+01
12 14  2 17  9 59 44.0  .186979304999D-03  .238742359215D-11  .000000000000D+00
     .600000000000D+01  .809062500000D+02  .398766610230D-08  .177903922778D+01
     .410154461861D-05  .485401658807D-02  .793859362602D-05  .515367729187D+04
     .122384000000D+06 -.745058059692D-08 -.200189176205D+01  .122934579849D-06
     .986529592849D+00  .236406250000D+03  .340003962027D+00 -.793675916931D-08
     .537522389965D-09  .100000000000D+01  .178000000000D+04  .000000000000D+00
     .240000000000D+01  .000000000000D+00 -.121071934700D-07  .600000000000D+01
     .117666000000D+06  .400000000000D+01
 9 14  2 17  9 59 44.0  .306143425405D-03  .284217094304D-11  .000000000000D+00
     .400000000000D+01 -.270625000000D+02  .363800868052D-08 -.303870145722D+01
    -.136531889439D-05  .169176835334D-01  .117253512144D-04  .515369608879D+04
     .122384000000D+06  .217929482460D-06 -.308437284533D+01  .128522515297D-06
     .983021649883D+00  .159750000000D+03  .176936197056D+01 -.732316218196D-08
    -.266082511976D-09  .100000000000D+01  .178000000000D+04  .000000000000D+00
     .240000000000D+01  .000000000000D+00 -.605359673500D-08  .400000000000D+01
     .117786000000D+06  .400000000000D+01
21 14  2 17  9 58 24.0 -.344457104802D-03 -.216004991671D-11  .000000000000D+00
     .100000000000D+01 -.773437500000D+02  .512449917025D-08  .126911248274D+01
    -.393204391003D-05  .210615266114D-01  .120066106319D-04  .515380937767D+04
     .122304000000D+06 -.447034835815D-06  .502195887160D-01 -.428408384323D-07
     .932635518184D+00  .144312500000D+03 -.206300841542D+01 -.856464246602D-08
    -.362157942475D-09  .100000000000D+01  .178000000000D+04  .000000000000D+00
     .240000000000D+01  .000000000000D+00 -.111758708954D-07  .100000000000D+01
     .120576000000D+06  .400000000000D+01
18 14  2 17  9 59 44.0  .302415806800D-03  .216004991671D-11  .000000000000D+00
     .900000000000D+01  .710000000000D+02  .551630120466D-08  .234512741837D+00
     .388547778130D-05  .147452610545D-01  .833719968796D-05  .515367172813D+04
     .122384000000D+06 -.132247805595D-06  .109570407650D+01  .130385160446D-06
     .926022228771D+00  .202468750000D+03 -.205915857387D+01 -.882465329652D-08
     .302512600864D-09  .100000000000D+01  .178000000000D+04  .000000000000D+00
     .240000000000D+01  .000000000000D+00 -.107102096081D-07  .900000000000D+01
     .120636000000D+06  .400000000000D+01
 8 14  2 17  9 59 44.0  .119693577290D-04  .227373675443D-12  .000000000000D+00
     .370000000000D+02 -.900000000000D+01  .338656963565D-08  .153690486123D+01
    -.346451997757D-06  .134766035480D-01  .123195350170D-04  .515364474106D+04
     .122384000000D+06 -.931322574615D-07 -.296609520911D+01  .156462192535D-06
     .997600241506D+00  .162562500000D+03 -.279217212781D+01 -.749245494797D-08
    -.337156901081D-09  .100000000000D+01  .178000000000D+04  .000000000000D+00
     .240000000000D+01  .000000000000D+00 -.419095158577D-08  .370000000000D+02
     .122106000000D+06  .400000000000D+01
21 14  2 17 11 58 24.0 -.344472471625D-03 -.216004991671D-11  .000000000000D+00
     .500000000000D+01 -.807500000000D+02  .494806324955D-08  .231926039201D+01
    -.433810055256D-05  .210623489693D-01  .119190663099D-04  .515380724716D+04
     .129504000000D+06  .106170773506D-06  .501591950690D-01 -.422820448875D-06
     .932636128221D+00  .133375000000D+03 -.206305418866D+01 -.793211611876D-08
    -.248938940735D-09  .100000000000D+01  .178000000000D+04  .000000000000D+00
     .240000000000D+01  .000000000000D+00 -.111758708954D-07  .500000000000D+01
     .122406000000D+06  .400000000000D+01
 8 14  2 17 11 59 44.0  .119707547128D-04  .227373675443D-12  .000000000000D+00
     .430000000000D+02 -.130000000000D+02  .330906640733D-08  .258705966963D+01
    -.752508640289D-06  .134762495290D-01  .121444463730D-04  .515364583397D+04
     .129584000000D+06 -.195577740669D-06 -.296614946728D+01 -.819563865662D-07
     .997599148706D+00  .164468750000D+03 -.279213646040D+01 -.728530346213D-08
    -.195008122871D-09  .100000000000D+01  .178000000000D+04  .000000000000D+00
     .240000000000D+01  .000000000000D+00 -.419095158577D-08  .430000000000D+02
     .122406000000D+06  .400000000000D+01
 9 14  2 17 11 59 44.0  .306163914502D-03  .284217094304D-11  .000000000000D+00
     .240000000000D+02 -.182187500000D+02  .371979780165D-08 -.198855061626D+01
    -.772997736931D-06  .169189482694D-01  .114012509584D-04  .515369398880D+04
     .129584000000D+06  .141561031342D-06 -.308442534215D+01  .398606061935D-06
     .983019183403D+00  .168000000000D+03  .176937331110D+01 -.747316843032D-08
    -.307869966877D-09  .100000000000D+01  .178000000000D+04  .000000000000D+00
     .240000000000D+01  .000000000000D+00 -.605359673500D-08  .240000000000D+02
     .122406000000D+06  .400000000000D+01
12 14  2 17 11 59 44.0  .186996068805D-03  .238742359215D-11  .000000000000D+00
     .700000000000D+01  .880625000000D+02  .389230498727D-08  .282937880858D+01
     .462308526039D-05  .485441728961D-02  .809505581856D-05  .515367567444D+04
     .129584000000D+06 -.242143869400D-07 -.200194888022D+01 -.260770320892D-07
     .986534234688D+00  .236000000000D+03  .339839971836D+00 -.781282543554D-08
     .601096466652D-09  .100000000000D+01  .178000000000D+04  .000000000000D+00
     .240000000000D+01  .000000000000D+00 -.121071934700D-07  .700000000000D+01
     .122406000000D+06  .400000000000D+01
18 14  2 17 11 59 44.0  .302431173623D-03  .216004991671D-11  .000000000000D+00
     .100000000000D+02  .720000000000D+02  .548808574366D-08  .128465526026D+01
     .374019145966D-05  .147467264906D-01  .917725265026D-05  .515367464447D+04
     .129584000000D+06 -.296160578728D-06  .109564030790D+01  .447034835815D-07
     .926024531404D+00  .189156250000D+03 -.205911326290D+01 -.875286459194D-08
     .355014787791D-09  .100000000000D+01  .178000000000D+04  .000000000000D+00
     .240000000000D+01  .000000000000D+00 -.107102096081D-07  .100000000000D+02
     .122406000000D+06  .400000000000D+01
 1 14  2 17 12  0  0.0 -.310596078634D-06  .216004991671D-11  .000000000000D+00
     .840000000000D+02 -.593125000000D+02  .440482633584D-08 -.251174487258D+01
    -.315532088280D-05  .273179670330D-02  .112764537334D-04  .515368868446D+04
     .129600000000D+06 -.763684511185D-07  .595338125765D-01 -.856816768646D-07
     .961203145443D+00  .162468750000D+03  .370074636671D+00 -.789390024120D-08
    -.196436753808D-09  .100000000000D+01  .178000000000D+04  .000000000000D+00
     .240000000000D+01  .000000000000D+00  .838190317154D-08  .840000000000D+02
     .122406000000D+06  .400000000000D+01
